{
  "type": "FeatureCollection",
  "features": [
    {
      "type": "Feature",
      "properties": {
        "norad_id": 44333,
        "name": "AT&T T-16",
        "group": "intelsat",
        "lat": -0.02451869236352395,
        "lon": -84.79075910110674,
        "alt_km": 35783.771598219195,
        "timestamp": "2025-12-27T18:38:03.147247+00:00",
        "meta_object_name": "AT&T T-16",
        "meta_object_id": "2019-034A",
        "meta_epoch": "2025-12-26T09:24:01.437984",
        "meta_mean_motion": 1.00280007,
        "meta_eccentricity": 9.59e-05,
        "meta_inclination": 0.0209,
        "meta_ra_of_asc_node": 69.0211,
        "meta_arg_of_pericenter": 116.5883,
        "meta_mean_anomaly": 309.683,
        "meta_ephemeris_type": 0,
        "meta_classification_type": "U",
        "meta_norad_cat_id": 44333,
        "meta_element_set_no": 999,
        "meta_rev_at_epoch": 2390,
        "meta_bstar": 0,
        "meta_mean_motion_dot": -9.5e-07,
        "meta_mean_motion_ddot": 0,
        "tle_line1": "1 44333U 19034A   25360.39168331 -.00000095  00000+0  00000+0 0  9997",
        "tle_line2": "2 44333   0.0209  69.0211 0000959 116.5883 309.6830  1.00280007 23905"
      },
      "geometry": {
        "type": "Point",
        "coordinates": [
          -84.79075910110674,
          -0.02451869236352395
        ]
      }
    },
    {
      "type": "Feature",
      "properties": {
        "norad_id": 44476,
        "name": "INTELSAT 39 (IS-39)",
        "group": "intelsat",
        "lat": 0.03423383005858302,
        "lon": 77.94046590074139,
        "alt_km": 35785.535236302974,
        "timestamp": "2025-12-27T18:38:03.147259+00:00",
        "meta_object_name": "INTELSAT 39 (IS-39)",
        "meta_object_id": "2019-049B",
        "meta_epoch": "2025-12-27T11:35:05.959104",
        "meta_mean_motion": 1.00270962,
        "meta_eccentricity": 9.83e-05,
        "meta_inclination": 0.0171,
        "meta_ra_of_asc_node": 7.101,
        "meta_arg_of_pericenter": 150.4764,
        "meta_mean_anomaly": 174.3545,
        "meta_ephemeris_type": 0,
        "meta_classification_type": "U",
        "meta_norad_cat_id": 44476,
        "meta_element_set_no": 999,
        "meta_rev_at_epoch": 2340,
        "meta_bstar": 0,
        "meta_mean_motion_dot": 5.6e-07,
        "meta_mean_motion_ddot": 0,
        "tle_line1": "1 44476U 19049B   25361.48270786  .00000056  00000+0  00000+0 0  9996",
        "tle_line2": "2 44476   0.0171   7.1010 0000983 150.4764 174.3545  1.00270962 23407"
      },
      "geometry": {
        "type": "Point",
        "coordinates": [
          77.94046590074139,
          0.03423383005858302
        ]
      }
    },
    {
      "type": "Feature",
      "properties": {
        "norad_id": 46114,
        "name": "GALAXY 30 (G-30)",
        "group": "intelsat",
        "lat": -0.02966230236847841,
        "lon": -109.00900019500865,
        "alt_km": 35777.23091556688,
        "timestamp": "2025-12-27T18:38:03.147270+00:00",
        "meta_object_name": "GALAXY 30 (G-30)",
        "meta_object_id": "2020-056C",
        "meta_epoch": "2025-12-27T10:41:41.072928",
        "meta_mean_motion": 1.00271311,
        "meta_eccentricity": 0.0002344,
        "meta_inclination": 0.0127,
        "meta_ra_of_asc_node": 356.392,
        "meta_arg_of_pericenter": 279.9567,
        "meta_mean_anomaly": 215.2437,
        "meta_ephemeris_type": 0,
        "meta_classification_type": "U",
        "meta_norad_cat_id": 46114,
        "meta_element_set_no": 999,
        "meta_rev_at_epoch": 1957,
        "meta_bstar": 0,
        "meta_mean_motion_dot": 5.9e-07,
        "meta_mean_motion_ddot": 0,
        "tle_line1": "1 46114U 20056C   25361.44561427  .00000059  00000+0  00000+0 0  9991",
        "tle_line2": "2 46114   0.0127 356.3920 0002344 279.9567 215.2437  1.00271311 19576"
      },
      "geometry": {
        "type": "Point",
        "coordinates": [
          -109.00900019500865,
          -0.02966230236847841
        ]
      }
    },
    {
      "type": "Feature",
      "properties": {
        "norad_id": 54026,
        "name": "GALAXY 33 (G-33)",
        "group": "intelsat",
        "lat": -0.03235784512866278,
        "lon": -117.00287747751887,
        "alt_km": 35779.249243760394,
        "timestamp": "2025-12-27T18:38:03.147282+00:00",
        "meta_object_name": "GALAXY 33 (G-33)",
        "meta_object_id": "2022-128A",
        "meta_epoch": "2025-12-27T10:39:26.288064",
        "meta_mean_motion": 1.00271521,
        "meta_eccentricity": 0.0001861,
        "meta_inclination": 0.0176,
        "meta_ra_of_asc_node": 356.8453,
        "meta_arg_of_pericenter": 275.2444,
        "meta_mean_anomaly": 210.9443,
        "meta_ephemeris_type": 0,
        "meta_classification_type": "U",
        "meta_norad_cat_id": 54026,
        "meta_element_set_no": 999,
        "meta_rev_at_epoch": 1202,
        "meta_bstar": 0,
        "meta_mean_motion_dot": 1.01e-06,
        "meta_mean_motion_ddot": 0,
        "tle_line1": "1 54026U 22128A   25361.44405426  .00000101  00000+0  00000+0 0  9998",
        "tle_line2": "2 54026   0.0176 356.8453 0001861 275.2444 210.9443  1.00271521 12028"
      },
      "geometry": {
        "type": "Point",
        "coordinates": [
          -117.00287747751887,
          -0.03235784512866278
        ]
      }
    },
    {
      "type": "Feature",
      "properties": {
        "norad_id": 54027,
        "name": "GALAXY 34 (G-34)",
        "group": "intelsat",
        "lat": -0.03279531404717054,
        "lon": -112.95577276551333,
        "alt_km": 35779.807008198346,
        "timestamp": "2025-12-27T18:38:03.147294+00:00",
        "meta_object_name": "GALAXY 34 (G-34)",
        "meta_object_id": "2022-128B",
        "meta_epoch": "2025-12-27T10:40:33.680064",
        "meta_mean_motion": 1.00270646,
        "meta_eccentricity": 0.0001697,
        "meta_inclination": 0.0236,
        "meta_ra_of_asc_node": 20.6638,
        "meta_arg_of_pericenter": 250.1205,
        "meta_mean_anomaly": 216.5768,
        "meta_ephemeris_type": 0,
        "meta_classification_type": "U",
        "meta_norad_cat_id": 54027,
        "meta_element_set_no": 999,
        "meta_rev_at_epoch": 1219,
        "meta_bstar": 0,
        "meta_mean_motion_dot": 0,
        "meta_mean_motion_ddot": 0,
        "tle_line1": "1 54027U 22128B   25361.44483426  .00000000  00000+0  00000+0 0  9993",
        "tle_line2": "2 54027   0.0236  20.6638 0001697 250.1205 216.5768  1.00270646 12198"
      },
      "geometry": {
        "type": "Point",
        "coordinates": [
          -112.95577276551333,
          -0.03279531404717054
        ]
      }
    },
    {
      "type": "Feature",
      "properties": {
        "norad_id": 54243,
        "name": "GALAXY 31 (G-31)",
        "group": "intelsat",
        "lat": -0.025812480460956327,
        "lon": -105.01644127118226,
        "alt_km": 35779.670594909745,
        "timestamp": "2025-12-27T18:38:03.147305+00:00",
        "meta_object_name": "GALAXY 31 (G-31)",
        "meta_object_id": "2022-153A",
        "meta_epoch": "2025-12-27T09:36:38.709792",
        "meta_mean_motion": 1.00270638,
        "meta_eccentricity": 0.000186,
        "meta_inclination": 0.0105,
        "meta_ra_of_asc_node": 18.1667,
        "meta_arg_of_pericenter": 268.3104,
        "meta_mean_anomaly": 192.804,
        "meta_ephemeris_type": 0,
        "meta_classification_type": "U",
        "meta_norad_cat_id": 54243,
        "meta_element_set_no": 999,
        "meta_rev_at_epoch": 541,
        "meta_bstar": 0,
        "meta_mean_motion_dot": 0,
        "meta_mean_motion_ddot": 0,
        "tle_line1": "1 54243U 22153A   25361.40044803  .00000000  00000+0  00000+0 0  9999",
        "tle_line2": "2 54243   0.0105  18.1667 0001860 268.3104 192.8040  1.00270638  5415"
      },
      "geometry": {
        "type": "Point",
        "coordinates": [
          -105.01644127118226,
          -0.025812480460956327
        ]
      }
    },
    {
      "type": "Feature",
      "properties": {
        "norad_id": 54244,
        "name": "GALAXY 32 (G-32)",
        "group": "intelsat",
        "lat": -0.028315531034395082,
        "lon": -74.9992531309948,
        "alt_km": 35778.41181073111,
        "timestamp": "2025-12-27T18:38:03.147316+00:00",
        "meta_object_name": "GALAXY 32 (G-32)",
        "meta_object_id": "2022-153B",
        "meta_epoch": "2025-12-27T05:43:17.150016",
        "meta_mean_motion": 1.00271625,
        "meta_eccentricity": 0.00021,
        "meta_inclination": 0.0101,
        "meta_ra_of_asc_node": 27.3802,
        "meta_arg_of_pericenter": 286.8515,
        "meta_mean_anomaly": 136.5664,
        "meta_ephemeris_type": 0,
        "meta_classification_type": "U",
        "meta_norad_cat_id": 54244,
        "meta_element_set_no": 999,
        "meta_rev_at_epoch": 1142,
        "meta_bstar": 0,
        "meta_mean_motion_dot": -1.52e-06,
        "meta_mean_motion_ddot": 0,
        "tle_line1": "1 54244U 22153B   25361.23839294 -.00000152  00000+0  00000+0 0  9996",
        "tle_line2": "2 54244   0.0101  27.3802 0002100 286.8515 136.5664  1.00271625 11426"
      },
      "geometry": {
        "type": "Point",
        "coordinates": [
          -74.9992531309948,
          -0.028315531034395082
        ]
      }
    }
  ]
}